CCSDS_OMM_VERS = 2.0
CREATION_DATE  = 
ORIGINATOR     = 

OBJECT_NAME    = KUIPER-00188
OBJECT_ID      = 2025-301K
CENTER_NAME    = EARTH
REF_FRAME      = TEME
TIME_SYSTEM    = UTC
MEAN_ELEMENT_THEORY = SGP/SGP4

EPOCH          = 2025-12-28T21:59:39.826752
MEAN_MOTION    = 15.35083768
ECCENTRICITY   = .00073663
INCLINATION    = 51.8706
RA_OF_ASC_NODE = 47.1722
ARG_OF_PERICENTER = 142.7839
MEAN_ANOMALY   = 217.3658

EPHEMERIS_TYPE = 0
CLASSIFICATION_TYPE = U
NORAD_CAT_ID   = 67142
ELEMENT_SET_NO = 999
REV_AT_EPOCH   = 285
BSTAR          = .10758536E-2
MEAN_MOTION_DOT = .37014E-3
MEAN_MOTION_DDOT = 0

CCSDS_OMM_VERS = 2.0
CREATION_DATE  = 
ORIGINATOR     = 

OBJECT_NAME    = KUIPER-00191
OBJECT_ID      = 2025-301L
CENTER_NAME    = EARTH
REF_FRAME      = TEME
TIME_SYSTEM    = UTC
MEAN_ELEMENT_THEORY = SGP/SGP4

EPOCH          = 2025-12-28T20:23:10.967136
MEAN_MOTION    = 15.35266369
ECCENTRICITY   = .00067497
INCLINATION    = 51.8684
RA_OF_ASC_NODE = 47.4736
ARG_OF_PERICENTER = 137.1967
MEAN_ANOMALY   = 222.9545

EPHEMERIS_TYPE = 0
CLASSIFICATION_TYPE = U
NORAD_CAT_ID   = 67143
ELEMENT_SET_NO = 999
REV_AT_EPOCH   = 287
BSTAR          = .16413035E-3
MEAN_MOTION_DOT = .5329E-4
MEAN_MOTION_DDOT = 0

CCSDS_OMM_VERS = 2.0
CREATION_DATE  = 
ORIGINATOR     = 

OBJECT_NAME    = KUIPER-00196
OBJECT_ID      = 2025-301M
CENTER_NAME    = EARTH
REF_FRAME      = TEME
TIME_SYSTEM    = UTC
MEAN_ELEMENT_THEORY = SGP/SGP4

EPOCH          = 2025-12-28T20:12:50.501088
MEAN_MOTION    = 15.36073816
ECCENTRICITY   = .00039732
INCLINATION    = 51.8736
RA_OF_ASC_NODE = 47.4245
ARG_OF_PERICENTER = 103.6053
MEAN_ANOMALY   = 256.5376

EPHEMERIS_TYPE = 0
CLASSIFICATION_TYPE = U
NORAD_CAT_ID   = 67144
ELEMENT_SET_NO = 999
REV_AT_EPOCH   = 284
BSTAR          = .91682289E-3
MEAN_MOTION_DOT = .32471E-3
MEAN_MOTION_DDOT = 0

CCSDS_OMM_VERS = 2.0
CREATION_DATE  = 
ORIGINATOR     = 

OBJECT_NAME    = KUIPER-00204
OBJECT_ID      = 2025-301N
CENTER_NAME    = EARTH
REF_FRAME      = TEME
TIME_SYSTEM    = UTC
MEAN_ELEMENT_THEORY = SGP/SGP4

EPOCH          = 2025-12-28T20:06:43.174080
MEAN_MOTION    = 15.36656252
ECCENTRICITY   = .00020571
INCLINATION    = 51.8747
RA_OF_ASC_NODE = 47.3918
ARG_OF_PERICENTER = 82.6638
MEAN_ANOMALY   = 277.4582

EPHEMERIS_TYPE = 0
CLASSIFICATION_TYPE = U
NORAD_CAT_ID   = 67145
ELEMENT_SET_NO = 999
REV_AT_EPOCH   = 295
BSTAR          = .10389E-2
MEAN_MOTION_DOT = .37568E-3
MEAN_MOTION_DDOT = 0

CCSDS_OMM_VERS = 2.0
CREATION_DATE  = 
ORIGINATOR     = 

OBJECT_NAME    = KUIPER-00210
OBJECT_ID      = 2025-301P
CENTER_NAME    = EARTH
REF_FRAME      = TEME
TIME_SYSTEM    = UTC
MEAN_ELEMENT_THEORY = SGP/SGP4

EPOCH          = 2025-12-28T22:08:49.650432
MEAN_MOTION    = 15.34316423
ECCENTRICITY   = .00104606
INCLINATION    = 51.8616
RA_OF_ASC_NODE = 47.2098
ARG_OF_PERICENTER = 158.1106
MEAN_ANOMALY   = 202.0328

EPHEMERIS_TYPE = 0
CLASSIFICATION_TYPE = U
NORAD_CAT_ID   = 67146
ELEMENT_SET_NO = 999
REV_AT_EPOCH   = 302
BSTAR          = .86405844E-3
MEAN_MOTION_DOT = .28923E-3
MEAN_MOTION_DDOT = 0

CCSDS_OMM_VERS = 2.0
CREATION_DATE  = 
ORIGINATOR     = 

OBJECT_NAME    = KUIPER-00221
OBJECT_ID      = 2025-301Q
CENTER_NAME    = EARTH
REF_FRAME      = TEME
TIME_SYSTEM    = UTC
MEAN_ELEMENT_THEORY = SGP/SGP4

EPOCH          = 2025-12-28T20:16:30.303552
MEAN_MOTION    = 15.35792489
ECCENTRICITY   = .00048895
INCLINATION    = 51.8725
RA_OF_ASC_NODE = 47.4431
ARG_OF_PERICENTER = 122.2194
MEAN_ANOMALY   = 237.9266

EPHEMERIS_TYPE = 0
CLASSIFICATION_TYPE = U
NORAD_CAT_ID   = 67147
ELEMENT_SET_NO = 999
REV_AT_EPOCH   = 284
BSTAR          = .10552845E-2
MEAN_MOTION_DOT = .37122E-3
MEAN_MOTION_DDOT = 0

CCSDS_OMM_VERS = 2.0
CREATION_DATE  = 
ORIGINATOR     = 

OBJECT_NAME    = KUIPER-00232
OBJECT_ID      = 2025-301R
CENTER_NAME    = EARTH
REF_FRAME      = TEME
TIME_SYSTEM    = UTC
MEAN_ELEMENT_THEORY = SGP/SGP4

EPOCH          = 2025-12-28T20:04:42.064608
MEAN_MOTION    = 15.36814665
ECCENTRICITY   = .00016199
INCLINATION    = 51.8743
RA_OF_ASC_NODE = 47.3863
ARG_OF_PERICENTER = 58.3156
MEAN_ANOMALY   = 301.7988

EPHEMERIS_TYPE = 0
CLASSIFICATION_TYPE = U
NORAD_CAT_ID   = 67148
ELEMENT_SET_NO = 999
REV_AT_EPOCH   = 284
BSTAR          = .88574927E-3
MEAN_MOTION_DOT = .32114E-3
MEAN_MOTION_DDOT = 0

CCSDS_OMM_VERS = 2.0
CREATION_DATE  = 
ORIGINATOR     = 

OBJECT_NAME    = KUIPER-00241
OBJECT_ID      = 2025-301S
CENTER_NAME    = EARTH
REF_FRAME      = TEME
TIME_SYSTEM    = UTC
MEAN_ELEMENT_THEORY = SGP/SGP4

EPOCH          = 2025-12-28T18:36:34.337088
MEAN_MOTION    = 15.36363802
ECCENTRICITY   = .00032528
INCLINATION    = 51.8745
RA_OF_ASC_NODE = 47.7246
ARG_OF_PERICENTER = 106.1043
MEAN_ANOMALY   = 254.0301

EPHEMERIS_TYPE = 0
CLASSIFICATION_TYPE = U
NORAD_CAT_ID   = 67149
ELEMENT_SET_NO = 999
REV_AT_EPOCH   = 316
BSTAR          = .15068299E-2
MEAN_MOTION_DOT = .54274E-3
MEAN_MOTION_DDOT = 0

CCSDS_OMM_VERS = 2.0
CREATION_DATE  = 
ORIGINATOR     = 

OBJECT_NAME    = KUIPER-00245
OBJECT_ID      = 2025-301T
CENTER_NAME    = EARTH
REF_FRAME      = TEME
TIME_SYSTEM    = UTC
MEAN_ELEMENT_THEORY = SGP/SGP4

EPOCH          = 2025-12-28T20:17:32.441568
MEAN_MOTION    = 15.35765711
ECCENTRICITY   = .00050253
INCLINATION    = 51.8731
RA_OF_ASC_NODE = 47.4470
ARG_OF_PERICENTER = 129.1390
MEAN_ANOMALY   = 231.0043

EPHEMERIS_TYPE = 0
CLASSIFICATION_TYPE = U
NORAD_CAT_ID   = 67150
ELEMENT_SET_NO = 999
REV_AT_EPOCH   = 284
BSTAR          = .11938529E-2
MEAN_MOTION_DOT = .42039E-3
MEAN_MOTION_DDOT = 0

CCSDS_OMM_VERS = 2.0
CREATION_DATE  = 
ORIGINATOR     = 

OBJECT_NAME    = KUIPER-00246
OBJECT_ID      = 2025-301U
CENTER_NAME    = EARTH
REF_FRAME      = TEME
TIME_SYSTEM    = UTC
MEAN_ELEMENT_THEORY = SGP/SGP4

EPOCH          = 2025-12-28T20:13:47.646912
MEAN_MOTION    = 15.36065833
ECCENTRICITY   = .00039492
INCLINATION    = 51.8742
RA_OF_ASC_NODE = 47.4287
ARG_OF_PERICENTER = 122.5053
MEAN_ANOMALY   = 237.6315

EPHEMERIS_TYPE = 0
CLASSIFICATION_TYPE = U
NORAD_CAT_ID   = 67151
ELEMENT_SET_NO = 999
REV_AT_EPOCH   = 286
BSTAR          = .14574229E-2
MEAN_MOTION_DOT = .51966E-3
MEAN_MOTION_DDOT = 0

CCSDS_OMM_VERS = 2.0
CREATION_DATE  = 
ORIGINATOR     = 

OBJECT_NAME    = KUIPER-00247
OBJECT_ID      = 2025-301V
CENTER_NAME    = EARTH
REF_FRAME      = TEME
TIME_SYSTEM    = UTC
MEAN_ELEMENT_THEORY = SGP/SGP4

EPOCH          = 2025-12-28T22:10:57.417888
MEAN_MOTION    = 15.34146761
ECCENTRICITY   = .00111475
INCLINATION    = 51.8644
RA_OF_ASC_NODE = 47.2207
ARG_OF_PERICENTER = 161.5421
MEAN_ANOMALY   = 198.5971

EPHEMERIS_TYPE = 0
CLASSIFICATION_TYPE = U
NORAD_CAT_ID   = 67152
ELEMENT_SET_NO = 999
REV_AT_EPOCH   = 285
BSTAR          = .12896994E-2
MEAN_MOTION_DOT = .43216E-3
MEAN_MOTION_DDOT = 0

CCSDS_OMM_VERS = 2.0
CREATION_DATE  = 
ORIGINATOR     = 

OBJECT_NAME    = KUIPER-00248
OBJECT_ID      = 2025-301W
CENTER_NAME    = EARTH
REF_FRAME      = TEME
TIME_SYSTEM    = UTC
MEAN_ELEMENT_THEORY = SGP/SGP4

EPOCH          = 2025-12-28T22:02:59.754624
MEAN_MOTION    = 15.34819482
ECCENTRICITY   = .00086986
INCLINATION    = 51.8689
RA_OF_ASC_NODE = 47.1871
ARG_OF_PERICENTER = 148.9499
MEAN_ANOMALY   = 211.2002

EPHEMERIS_TYPE = 0
CLASSIFICATION_TYPE = U
NORAD_CAT_ID   = 67153
ELEMENT_SET_NO = 999
REV_AT_EPOCH   = 302
BSTAR          = .87669876E-3
MEAN_MOTION_DOT = .29817E-3
MEAN_MOTION_DDOT = 0

CCSDS_OMM_VERS = 2.0
CREATION_DATE  = 
ORIGINATOR     = 

OBJECT_NAME    = KUIPER-00249
OBJECT_ID      = 2025-301X
CENTER_NAME    = EARTH
REF_FRAME      = TEME
TIME_SYSTEM    = UTC
MEAN_ELEMENT_THEORY = SGP/SGP4

EPOCH          = 2025-12-28T22:00:43.795584
MEAN_MOTION    = 15.34946160
ECCENTRICITY   = .00081017
INCLINATION    = 51.8664
RA_OF_ASC_NODE = 47.1765
ARG_OF_PERICENTER = 145.9935
MEAN_ANOMALY   = 214.1571

EPHEMERIS_TYPE = 0
CLASSIFICATION_TYPE = U
NORAD_CAT_ID   = 67154
ELEMENT_SET_NO = 999
REV_AT_EPOCH   = 285
BSTAR          = .88310798E-3
MEAN_MOTION_DOT = .30158E-3
MEAN_MOTION_DDOT = 0

CCSDS_OMM_VERS = 2.0
CREATION_DATE  = 
ORIGINATOR     = 

OBJECT_NAME    = KUIPER-00250
OBJECT_ID      = 2025-301Y
CENTER_NAME    = EARTH
REF_FRAME      = TEME
TIME_SYSTEM    = UTC
MEAN_ELEMENT_THEORY = SGP/SGP4

EPOCH          = 2025-12-28T20:21:08.754336
MEAN_MOTION    = 15.35493278
ECCENTRICITY   = .00062965
INCLINATION    = 51.8723
RA_OF_ASC_NODE = 47.4642
ARG_OF_PERICENTER = 135.9534
MEAN_ANOMALY   = 224.1955

EPHEMERIS_TYPE = 0
CLASSIFICATION_TYPE = U
NORAD_CAT_ID   = 67155
ELEMENT_SET_NO = 999
REV_AT_EPOCH   = 287
BSTAR          = .11550993E-2
MEAN_MOTION_DOT = .40305E-3
MEAN_MOTION_DDOT = 0

CCSDS_OMM_VERS = 2.0
CREATION_DATE  = 
ORIGINATOR     = 

OBJECT_NAME    = KUIPER-00251
OBJECT_ID      = 2025-301Z
CENTER_NAME    = EARTH
REF_FRAME      = TEME
TIME_SYSTEM    = UTC
MEAN_ELEMENT_THEORY = SGP/SGP4

EPOCH          = 2025-12-28T22:01:54.793056
MEAN_MOTION    = 15.34922845
ECCENTRICITY   = .00087819
INCLINATION    = 51.8675
RA_OF_ASC_NODE = 47.1823
ARG_OF_PERICENTER = 144.1656
MEAN_ANOMALY   = 215.9921

EPHEMERIS_TYPE = 0
CLASSIFICATION_TYPE = U
NORAD_CAT_ID   = 67156
ELEMENT_SET_NO = 999
REV_AT_EPOCH   = 304
BSTAR          = .10900144E-2
MEAN_MOTION_DOT = .37328E-3
MEAN_MOTION_DDOT = 0

